ONEWEB-0531             
1 54146U 22138AK  24118.55877905  .00000008  00000+0 -11636-4 0  9997
2 54146  87.9193  69.7560 0003153  83.0405 277.1087 13.20773465 76265
ONEWEB-0535             
1 54147U 22138AL  24118.46960475  .00000061  00000+0  11999-3 0  9992
2 54147  87.9103 100.3452 0002230  82.5469 277.5917 13.19726989 73864
ONEWEB-0536             
1 54148U 22138AM  24118.39464634  .00000079  00000+0  16348-3 0  9993
2 54148  87.9193  69.8382 0002992  71.3780 288.7678 13.20773559 76231
ONEWEB-0527             
1 54642U 22166A   24118.51431104  .00000023  00000+0  24302-4 0  9992
2 54642  87.9316  39.3806 0001980  83.8367 276.2992 13.21828219 68401
ONEWEB-0528             
1 54643U 22166B   24118.52060952  .00000140  00000+0  30738-3 0  9992
2 54643  87.9322  39.3644 0001826  85.6172 274.5170 13.21823847 68414
ONEWEB-0539             
1 54644U 22166C   24118.48118076 -.00000345  00000+0 -86695-3 0  9991
2 54644  87.9321  39.3738 0001771  72.9909 287.1419 13.21825969 68406
ONEWEB-0540             
1 54645U 22166D   24118.47567685 -.00000044  00000+0 -13912-3 0  9993
2 54645  87.9315  39.3963 0001671  73.5347 286.5971 13.21827618 68399
ONEWEB-0542             
1 54646U 22166E   24118.49064195  .00000081  00000+0  16434-3 0  9995
2 54646  87.9323  39.3717 0001891  64.0602 296.0727 13.21828671 68406
